ONEWEB-0205             
1 48226U 21031S   26001.89651860 -.00000015  00000+0 -75356-4 0  9998
2 48226  87.9009 322.8275 0001619  87.3504 272.7811 13.14501952226425
ONEWEB-0206             
1 48227U 21031T   26001.41286424  .00000305  00000+0  78803-3 0  9996
2 48227  87.9021 322.9160 0001889  70.9441 289.1893 13.14503018226316
ONEWEB-0182             
1 48228U 21031U   26001.86480749  .00000118  00000+0  28497-3 0  9998
2 48228  87.8997 322.8509 0001841  85.8185 274.3155 13.14501934226583
ONEWEB-0186             
1 48229U 21031V   26001.79978966  .00000314  00000+0  81149-3 0  9995
2 48229  87.9017 322.8435 0001619  83.9077 276.2238 13.14502111226523
ONEWEB-0181             
1 48230U 21031W   26001.92982173 -.00000095  00000+0 -29174-3 0  9995
2 48230  87.9004 322.8684 0001529  83.6802 276.4502 13.14502023226393
ONEWEB-0188             
1 48231U 21031X   26001.89175900  .00000056  00000+0  11537-3 0  9993
2 48231  87.9002 322.8734 0001727  82.2897 277.8429 13.14502666226292
ONEWEB-0220             
1 48232U 21031Y   26001.93140338 -.00000004  00000+0 -43978-4 0  9996
2 48232  87.9016 322.8161 0001586  90.2380 269.8932 13.14502282226565
ONEWEB-0165             
1 48233U 21031Z   26001.57936697  .00000201  00000+0  50874-3 0  9997
2 48233  87.9001 322.9102 0001402  75.8044 284.3241 13.14502620226470
